{"features": [{"properties": {"Chinese": "\u5251\u5ddd", "Group": "Bai, Central", "Pinyin": "Ji\u00e0nchu\u0101n", "marker-color": "#a6cee3", "Variety": "Jianchuan", "Sources": "Allen2007"}, "type": "Feature", "geometry": {"coordinates": [99.91, 26.538056], "type": "Point"}}, {"properties": {"Chinese": "\u6d31\u6e90", "Group": "Bai, Central", "Pinyin": "\u011aryu\u00e1n", "marker-color": "#a6cee3", "Variety": "Eryuan", "Sources": "Allen2007"}, "type": "Feature", "geometry": {"coordinates": [99.9416161, 26.0991374], "type": "Point"}}, {"properties": {"Chinese": "\u9e64\u5e86", "Group": "Bai, Central", "Pinyin": "H\u00e8q\u00ecng", "marker-color": "#a6cee3", "Variety": "Heqing", "Sources": "Allen2007"}, "type": "Feature", "geometry": {"coordinates": [100.1396921, 26.5536208], "type": "Point"}}, {"properties": {"Chinese": "\u5170\u576a", "Group": "Bai, Central", "Pinyin": "L\u00e1np\u00edng", "marker-color": "#a6cee3", "Variety": "Lanping", "Sources": "Allen2007"}, "type": "Feature", "geometry": {"coordinates": [99.2581092, 26.5158555], "type": "Point"}}, {"properties": {"Chinese": "\u5468\u57ce", "Group": "Bai, Southern", "Pinyin": "Zh\u014duch\u00e9ng", "marker-color": "#b2df8a", "Variety": "Zhoucheng", "Sources": "Allen2007"}, "type": "Feature", "geometry": {"coordinates": [100.0987848, 25.8958633], "type": "Point"}}, {"properties": {"Chinese": "\u4e03\u91cc\u6865", "Group": "Bai, Southern", "Pinyin": "Q\u012bl\u01d0qi\u00e1o", "marker-color": "#b2df8a", "Variety": "Qiliqiao", "Sources": "Allen2007"}, "type": "Feature", "geometry": {"coordinates": [100.1709288, 25.6553283], "type": "Point"}}, {"properties": {"Chinese": "\u4e91\u9f99", "Group": "Bai, Central", "Pinyin": "Y\u00fanl\u00f3ng", "marker-color": "#a6cee3", "Variety": "Yunlong", "Sources": "Allen2007"}, "type": "Feature", "geometry": {"coordinates": [99.0352884, 25.9223745], "type": "Point"}}, {"properties": {"Chinese": "\u7965\u4e91", "Group": "Bai, Southern", "Pinyin": "Xi\u00e1ngy\u00fan", "marker-color": "#b2df8a", "Variety": "Xiangyun", "Sources": "Allen2007"}, "type": "Feature", "geometry": {"coordinates": [100.4478932, 25.5313657], "type": "Point"}}, {"properties": {"Chinese": "\u6d1b\u672c\u5353", "Group": "Bai, Northern", "Pinyin": "L\u00f9b\u011bnzhu\u00f3", "marker-color": "#1f78b4", "Variety": "Luobenzhuo", "Sources": "Allen2007"}, "type": "Feature", "geometry": {"coordinates": [98.8862088, 26.4240223], "type": "Point"}}], "type": "FeatureCollection"}