{"type": "FeatureCollection", "features": [{"type": "Feature", "properties": {"Variety": "Beijing", "Group": "Mandarin", "Chinese": "\u5317\u4eac", "Sources": "Hou2004b,Wang2004a,Cihui,Liu2007", "Pinyin": "B\u011bij\u012bng", "marker-color": "#fb9a99"}, "geometry": {"coordinates": [116.42, 40.05], "type": "Point"}}, {"type": "Feature", "properties": {"Variety": "Suzhou", "Group": "Wu", "Chinese": "\u82cf\u5dde", "Sources": "Hou2004b,Wang2004a,Cihui,Liu2007", "Pinyin": "S\u016bzh\u014du", "marker-color": "#ff7f00"}, "geometry": {"coordinates": [120.0, 31.5], "type": "Point"}}, {"type": "Feature", "properties": {"Variety": "Wenzhou", "Group": "Wu", "Chinese": "\u6e29\u5dde", "Sources": "Hou2004b,Wang2004a,Cihui,Liu2007", "Pinyin": "W\u0113nzh\u014du", "marker-color": "#ff7f00"}, "geometry": {"coordinates": [120.701179, 28.005496], "type": "Point"}}, {"type": "Feature", "properties": {"Variety": "Changsha", "Group": "Xiang", "Chinese": "\u957f\u6c99", "Sources": "Hou2004b,Wang2004a,Cihui,Liu2007", "Pinyin": "Ch\u00e1ngsh\u0101", "marker-color": "#cab2d6"}, "geometry": {"coordinates": [112.943344, 28.85032], "type": "Point"}}, {"type": "Feature", "properties": {"Variety": "Loudi", "Group": "Xiang", "Chinese": "\u5a04\u5e95", "Sources": "Liu2007", "Pinyin": "L\u00f3ud\u00ee", "marker-color": "#cab2d6"}, "geometry": {"coordinates": [112.0, 27.733333], "type": "Point"}}, {"type": "Feature", "properties": {"Variety": "Nanchang", "Group": "Gan", "Chinese": "\u5357\u660c", "Sources": "Hou2004b,Wang2004a,Cihui,Liu2007", "Pinyin": "N\u00e1nch\u0101ng", "marker-color": "#a6cee3"}, "geometry": {"coordinates": [115.857468, 28.706609], "type": "Point"}}, {"type": "Feature", "properties": {"Variety": "Meixian", "Group": "Hakka", "Chinese": "\u6885\u53bf", "Sources": "Hou2004b,Wang2004a,Cihui,Liu2007", "Pinyin": "M\u00e9ixi\u00e0n", "marker-color": "#1f78b4"}, "geometry": {"coordinates": [115.95, 24.5], "type": "Point"}}, {"type": "Feature", "properties": {"Variety": "Guilin", "Group": "Pinghua", "Chinese": "\u6842\u6797", "Sources": "Liu2007", "Pinyin": "Gu\u012bl\u00edn", "marker-color": "#fdbf6f"}, "geometry": {"coordinates": [110.283333, 25.266667], "type": "Point"}}, {"type": "Feature", "properties": {"Variety": "Guangzhou", "Group": "Yue", "Chinese": "\u5e7f\u5dde", "Sources": "Hou2004b,Wang2004a,Cihui,Liu2007", "Pinyin": "Gu\u01cengzh\u014du", "marker-color": "#6a3d9a"}, "geometry": {"coordinates": [113.1, 23.5], "type": "Point"}}, {"type": "Feature", "properties": {"Variety": "Fuzhou", "Group": "Min", "Chinese": "\u798f\u5dde", "Sources": "Hou2004b,Wang2004a,Cihui,Liu2007", "Pinyin": "F\u00fazh\u014du", "marker-color": "#e31a1c"}, "geometry": {"coordinates": [119.294243, 26.08904], "type": "Point"}}, {"type": "Feature", "properties": {"Variety": "Xiamen", "Group": "Min", "Chinese": "\u53a6\u95e8", "Sources": "Hou2004b,Wang2004a,Cihui,Liu2007", "Pinyin": "Xi\u00e0m\u00e9n", "marker-color": "#e31a1c"}, "geometry": {"coordinates": [118.08918, 24.49421], "type": "Point"}}, {"type": "Feature", "properties": {"Variety": "Ha_erbin", "Group": "Mandarin", "Chinese": "\u54c8\u5c14\u6ee8", "Sources": "Hou2004b,Liu2007", "Pinyin": "H\u0101\u011brb\u012bn", "marker-color": "#fb9a99"}, "geometry": {"coordinates": [126.551056, 45.846595], "type": "Point"}}, {"type": "Feature", "properties": {"Variety": "Jinan", "Group": "Mandarin", "Chinese": "\u6d4e\u5357", "Sources": "Hou2004b,Wang2004a,Cihui,Liu2007", "Pinyin": "J\u01d0n\u00e1n", "marker-color": "#fb9a99"}, "geometry": {"coordinates": [116.997299, 36.690777], "type": "Point"}}, {"type": "Feature", "properties": {"Variety": "Rongcheng", "Group": "Mandarin", "Chinese": "\u8363\u6210", "Sources": "Liu2007,Liu2007", "Pinyin": "R\u00f3ngch\u00e9ng", "marker-color": "#fb9a99"}, "geometry": {"coordinates": [122.434269, 37.130642], "type": "Point"}}, {"type": "Feature", "properties": {"Variety": "Taiyuan", "Group": "Jin", "Chinese": "\u592a\u539f", "Sources": "Hou2004b,Wang2004a", "Pinyin": "T\u00e0iyu\u00e1n", "marker-color": "#33a02c"}, "geometry": {"coordinates": [113.25, 37.88423], "type": "Point"}}, {"type": "Feature", "properties": {"Variety": "Xi_an", "Group": "Mandarin", "Chinese": "\u897f\u5b89", "Sources": "Hou2004b,Cihui", "Pinyin": "X\u012b\u2019\u0101n", "marker-color": "#fb9a99"}, "geometry": {"coordinates": [108.960571, 34.228154], "type": "Point"}}, {"type": "Feature", "properties": {"Variety": "Chengdu", "Group": "Mandarin", "Chinese": "\u6210\u90fd", "Sources": "Hou2004b,Wang2004a,Cihui,Liu2007", "Pinyin": "Ch\u00e9ngd\u016b", "marker-color": "#fb9a99"}, "geometry": {"coordinates": [103.970947, 30.605768], "type": "Point"}}, {"type": "Feature", "properties": {"Variety": "Nanjing", "Group": "Mandarin", "Chinese": "\u5357\u4eac", "Sources": "Hou2004b,Liu2007", "Pinyin": "N\u00e1nj\u012bng", "marker-color": "#fb9a99"}, "geometry": {"coordinates": [119.0, 32.5], "type": "Point"}}, {"type": "Feature", "properties": {"Variety": "Jixi", "Group": "Hui", "Chinese": "\u7ee9\u6eaa", "Sources": "Liu2007", "Pinyin": "J\u00ecx\u012b", "marker-color": "#b2df8a"}, "geometry": {"coordinates": [118.592222, 30.071111], "type": "Point"}}, {"type": "Feature", "properties": {"Variety": "Anyi", "Group": "Gan", "Chinese": "\u5b89\u7fa9", "Sources": "Wang2004a", "Pinyin": "\u0100ny\u00ec", "marker-color": "#a6cee3"}, "geometry": {"coordinates": [115.54773, 28.84359], "type": "Point"}}, {"type": "Feature", "properties": {"Variety": "Chaozhou", "Group": "Min", "Chinese": "\u6f6e\u5dde", "Sources": "Cihui", "Pinyin": "Ch\u00e1ozh\u014du", "marker-color": "#e31a1c"}, "geometry": {"coordinates": [116.633333, 23.666667], "type": "Point"}}, {"type": "Feature", "properties": {"Variety": "Guiyang", "Group": "Mandarin", "Chinese": "\u8d35\u9633", "Sources": "Hou2004b", "Pinyin": "Gu\u00ecy\u00e1ng", "marker-color": "#fb9a99"}, "geometry": {"coordinates": [106.638336, 26.71691], "type": "Point"}}, {"type": "Feature", "properties": {"Variety": "Haikou", "Group": "Min", "Chinese": "\u6d77\u53e3", "Sources": "Hou2004b", "Pinyin": "H\u01ceik\u01d2u", "marker-color": "#e31a1c"}, "geometry": {"coordinates": [110.329399, 20.043869], "type": "Point"}}, {"type": "Feature", "properties": {"Variety": "Hangzhou", "Group": "Wu", "Chinese": "\u676d\u5dde", "Sources": "Hou2004b", "Pinyin": "H\u00e1ngzh\u014du", "marker-color": "#ff7f00"}, "geometry": {"coordinates": [119.8, 29.25], "type": "Point"}}, {"type": "Feature", "properties": {"Variety": "Hefei", "Group": "Mandarin", "Chinese": "\u5408\u80a5", "Sources": "Hou2004b,Cihui", "Pinyin": "H\u00e9f\u00e9i", "marker-color": "#fb9a99"}, "geometry": {"coordinates": [117.223663, 31.873593], "type": "Point"}}, {"type": "Feature", "properties": {"Variety": "Huhehaote", "Group": "Jin", "Chinese": "\u547c\u548c\u6d69\u7279", "Sources": "Hou2004b", "Pinyin": "H\u016bh\u00e8h\u00e0ot\u00e8", "marker-color": "#33a02c"}, "geometry": {"coordinates": [111.743889, 40.855526], "type": "Point"}}, {"type": "Feature", "properties": {"Variety": "Jian_ou", "Group": "Min", "Chinese": "\u5efa\u74ef", "Sources": "Hou2004b", "Pinyin": "Ji\u00e0n\u2019\u014du", "marker-color": "#e31a1c"}, "geometry": {"coordinates": [118.307419, 27.04237], "type": "Point"}}, {"type": "Feature", "properties": {"Variety": "Kunming", "Group": "Mandarin", "Chinese": "\u6606\u660e", "Sources": "Hou2004b,Cihui", "Pinyin": "K\u016bnm\u00edng", "marker-color": "#fb9a99"}, "geometry": {"coordinates": [102.72274, 25.049711], "type": "Point"}}, {"type": "Feature", "properties": {"Variety": "Lanzhou", "Group": "Mandarin", "Chinese": "\u5170\u5dde", "Sources": "Hou2004b", "Pinyin": "L\u00e1nzh\u014du", "marker-color": "#fb9a99"}, "geometry": {"coordinates": [103.838425, 36.080515], "type": "Point"}}, {"type": "Feature", "properties": {"Variety": "Liancheng", "Group": "Hakka", "Chinese": "\u8fde\u57ce", "Sources": "Wang2004a", "Pinyin": "L\u00edanch\u00e9ng", "marker-color": "#1f78b4"}, "geometry": {"coordinates": [116.783333, 25.566667], "type": "Point"}}, {"type": "Feature", "properties": {"Variety": "Nanning", "Group": "Pinghua", "Chinese": "\u5357\u5b81", "Sources": "Hou2004b", "Pinyin": "N\u00e1nn\u00edng", "marker-color": "#fdbf6f"}, "geometry": {"coordinates": [108.366165, 22.848716], "type": "Point"}}, {"type": "Feature", "properties": {"Variety": "Ningbo", "Group": "Wu", "Chinese": "\u5b81\u6ce2", "Sources": "Wang2004a", "Pinyin": "N\u00edngb\u014d", "marker-color": "#ff7f00"}, "geometry": {"coordinates": [121.533333, 29.866667], "type": "Point"}}, {"type": "Feature", "properties": {"Variety": "Ningxia", "Group": "Mandarin", "Chinese": "\u5b81\u590f", "Sources": "Wang2004a", "Pinyin": "N\u00edngxi\u00e0", "marker-color": "#fb9a99"}, "geometry": {"coordinates": [106.240082, 38.546662], "type": "Point"}}, {"type": "Feature", "properties": {"Variety": "Pingyao", "Group": "Jin", "Chinese": "\u5e73\u9065", "Sources": "Hou2004b", "Pinyin": "P\u00edngy\u00e1o", "marker-color": "#33a02c"}, "geometry": {"coordinates": [111.75, 37.202058], "type": "Point"}}, {"type": "Feature", "properties": {"Variety": "Qingdao", "Group": "Mandarin", "Chinese": "\u9752\u5c9b", "Sources": "Hou2004b", "Pinyin": "Q\u012bngd\u01ceo", "marker-color": "#fb9a99"}, "geometry": {"coordinates": [120.379715, 36.089393], "type": "Point"}}, {"type": "Feature", "properties": {"Variety": "Shanghai", "Group": "Wu", "Chinese": "\u4e0a\u6d77", "Sources": "Hou2004b,Wang2004a", "Pinyin": "Sh\u00e0ngh\u01cei", "marker-color": "#ff7f00"}, "geometry": {"coordinates": [121.475372, 31.222902], "type": "Point"}}, {"type": "Feature", "properties": {"Variety": "Shanghai_B", "Group": "Wu", "Chinese": "\u4e0a\u6d77", "Sources": "Wang2004a", "Pinyin": "Sh\u00e0ngh\u01cei", "marker-color": "#ff7f00"}, "geometry": {"coordinates": [121.475372, 31.222902], "type": "Point"}}, {"type": "Feature", "properties": {"Variety": "Shantou", "Group": "Min", "Chinese": "\u6c55\u5934", "Sources": "Hou2004b", "Pinyin": "Sh\u00e0nt\u00f3u", "marker-color": "#e31a1c"}, "geometry": {"coordinates": [116.666667, 23.35], "type": "Point"}}, {"type": "Feature", "properties": {"Variety": "Shenyang", "Group": "Mandarin", "Chinese": "\u6c88\u9633", "Sources": "Cihui", "Pinyin": "Sh\u011bny\u00e1ng", "marker-color": "#fb9a99"}, "geometry": {"coordinates": [123.4, 41.8], "type": "Point"}}, {"type": "Feature", "properties": {"Variety": "Shexian", "Group": "Hui", "Chinese": "\u6b59\u53bf", "Sources": "Hou2004b", "Pinyin": "Sh\u00e8xi\u00e0n", "marker-color": "#b2df8a"}, "geometry": {"coordinates": [118.428268, 30.589829], "type": "Point"}}, {"type": "Feature", "properties": {"Variety": "Shuangfeng", "Group": "Xiang", "Chinese": "\u53cc\u5cf0", "Sources": "Wang2004a", "Pinyin": "Shu\u0101ngf\u0113ng", "marker-color": "#cab2d6"}, "geometry": {"coordinates": [112.202, 27.452], "type": "Point"}}, {"type": "Feature", "properties": {"Variety": "Taibei", "Group": "Min", "Chinese": "\u53f0\u5317", "Sources": "Hou2004b,Wang2004a", "Pinyin": "T\u00e1ib\u011bi", "marker-color": "#e31a1c"}, "geometry": {"coordinates": [121.9, 25.3], "type": "Point"}}, {"type": "Feature", "properties": {"Variety": "Taoyuan", "Group": "Hakka", "Chinese": "\u6843\u56ed", "Sources": "Hou2004b", "Pinyin": "T\u00e1oyu\u00e1n", "marker-color": "#1f78b4"}, "geometry": {"coordinates": [120.5, 24.0], "type": "Point"}}, {"type": "Feature", "properties": {"Variety": "Tianjin", "Group": "Mandarin", "Chinese": "\u5929\u6d25", "Sources": "Hou2004b", "Pinyin": "Ti\u0101nj\u012bn", "marker-color": "#fb9a99"}, "geometry": {"coordinates": [117.215424, 39.186072], "type": "Point"}}, {"type": "Feature", "properties": {"Variety": "Tunxi", "Group": "Hui", "Chinese": "\u5c6f\u6eaa", "Sources": "Hou2004b", "Pinyin": "T\u016bnx\u012b", "marker-color": "#b2df8a"}, "geometry": {"coordinates": [118.0, 29.0], "type": "Point"}}, {"type": "Feature", "properties": {"Variety": "Wuhan", "Group": "Mandarin", "Chinese": "\u6b66\u6c49", "Sources": "Hou2004b,Wang2004a", "Pinyin": "W\u01d4h\u00e0n", "marker-color": "#fb9a99"}, "geometry": {"coordinates": [114.305649, 30.624086], "type": "Point"}}, {"type": "Feature", "properties": {"Variety": "Wulumuqi", "Group": "Mandarin", "Chinese": "\u4e4c\u9c81\u6728\u9f50", "Sources": "Hou2004b", "Pinyin": "W\u016bl\u01d4m\u00f9q\u00ed", "marker-color": "#fb9a99"}, "geometry": {"coordinates": [89.0, 43.9], "type": "Point"}}, {"type": "Feature", "properties": {"Variety": "Xianggang", "Group": "Yue", "Chinese": "\u9999\u6e2f", "Sources": "Hou2004b", "Pinyin": "Xi\u0101ngg\u01ceng", "marker-color": "#6a3d9a"}, "geometry": {"coordinates": [114.098396, 22.422645], "type": "Point"}}, {"type": "Feature", "properties": {"Variety": "Xiangtan", "Group": "Xiang", "Chinese": "\u6e58\u6f6d", "Sources": "Hou2004b", "Pinyin": "Xi\u0101ngt\u00e1n", "marker-color": "#cab2d6"}, "geometry": {"coordinates": [112.945518, 27.0], "type": "Point"}}, {"type": "Feature", "properties": {"Variety": "Xining", "Group": "Mandarin", "Chinese": "\u897f\u5b81", "Sources": "Hou2004b", "Pinyin": "X\u012bn\u00edng", "marker-color": "#fb9a99"}, "geometry": {"coordinates": [101.776886, 36.671283], "type": "Point"}}, {"type": "Feature", "properties": {"Variety": "Yangjiang", "Group": "Yue", "Chinese": "\u9633\u6c5f", "Sources": "Cihui", "Pinyin": "Y\u00e1ngji\u0101ng", "marker-color": "#6a3d9a"}, "geometry": {"coordinates": [111.966667, 21.85], "type": "Point"}}, {"type": "Feature", "properties": {"Variety": "Yangzhou", "Group": "Mandarin", "Chinese": "\u63da\u5dde", "Sources": "Cihui", "Pinyin": "Y\u00e1ngzh\u014du", "marker-color": "#fb9a99"}, "geometry": {"coordinates": [119.416667, 32.4], "type": "Point"}}, {"type": "Feature", "properties": {"Variety": "Yinchuan", "Group": "Mandarin", "Chinese": "\u94f6\u5ddd", "Sources": "Hou2004b", "Pinyin": "Y\u00ednchu\u0101n", "marker-color": "#fb9a99"}, "geometry": {"coordinates": [106.240082, 38.546662], "type": "Point"}}, {"type": "Feature", "properties": {"Variety": "Yuci", "Group": "Mandarin", "Chinese": "\u6986\u6b21", "Sources": "Wang2004a", "Pinyin": "Y\u00fac\u00ec", "marker-color": "#fb9a99"}, "geometry": {"coordinates": [112.85, 37.616667], "type": "Point"}}, {"type": "Feature", "properties": {"Variety": "Zhangping", "Group": "Min", "Chinese": "\u6f33\u5e73", "Sources": "Wang2004a", "Pinyin": "Zh\u0101ngp\u00edng", "marker-color": "#e31a1c"}, "geometry": {"coordinates": [117.416667, 25.283333], "type": "Point"}}, {"type": "Feature", "properties": {"Variety": "Zhengzhou", "Group": "Mandarin", "Chinese": "\u90d1\u5dde", "Sources": "Hou2004b", "Pinyin": "Zh\u00e8ngzh\u014du", "marker-color": "#fb9a99"}, "geometry": {"coordinates": [113.639374, 34.807715], "type": "Point"}}]}